NAVSTAR 77 (USA 289)    
1 43873U 18109A   24237.66345130 -.00000017  00000+0  00000+0 0  9997
2 43873  55.3208 118.3211 0030086 192.7965 358.5359  2.00558827 41801
